0 COSMOS 1375 DEB
1 18560U 82055BH  13283.42066705  .00000059  00000-0  15992-3 0  7662
2 18560 065.8319 275.6366 0038639 154.5865 356.0018 13.68798666304271
0 COSMOS 1375 DEB
1 18560U 82055BH  13285.60318411  .00000034  00000-0  13035-3 0  7678
2 18560 065.8321 270.3005 0038529 153.4774 310.7840 13.68799613304577
0 COSMOS 1375 DEB
1 18560U 82055BH  13289.02876668  .00000051  00000-0  15040-3 0  7689
2 18560 065.8325 261.9253 0038169 151.3354 271.4249 13.68800577305044
0 COSMOS 1375 DEB
1 18560U 82055BH  13292.33468271  .00000103  00000-0  21031-3 0  7690
2 18560 065.8330 253.8436 0037928 149.4419 002.2134 13.68801039305491
0 COSMOS 1375 DEB
1 18560U 82055BH  13294.51708573  .00000108  00000-0  21638-3 0  7704
2 18560 065.8331 248.5084 0037792 148.1678 316.6178 13.68802108305795
